[Satellite]
VERSION=1.1
NAME=GALAXY 18 (G-18)
NICKNAME=GALAXY 18 (G-18)
TLE1=1 32951U 08024A   15052.38676874  .00000001  00000-0  00000+0 0  9996
TLE2=2 32951   0.0181 116.3420 0003155 231.5976 179.2170  1.00272345 24676
